OSCAR 7 (AO-7)          
1 07530U 74089B   26160.31226999 -.00000035  00000+0  69227-4 0  9997
2 07530 101.9901 173.4766 0012488 144.7701 229.1729 12.53697932359533
PHASE 3B (AO-10)        
1 14129U 83058B   26158.17238870 -.00000194  00000+0  00000+0 0  9992
2 14129  25.9048 221.2242 6014266 112.9115 319.2048  2.05872980295281
UOSAT 2 (UO-11)         
1 14781U 84021B   26160.16689562  .00001121  00000+0  11978-3 0  9997
2 14781  97.8054 125.8314 0006886 199.5378 160.5577 14.90763358255931
LUSAT (LO-19)           
1 20442U 90005G   26160.22832358  .00000103  00000+0  53684-4 0  9997
2 20442  98.8852 181.8144 0010713 225.8181 134.2123 14.34120727901254
EYESAT A (AO-27)        
1 22825U 93061C   26160.09847172  .00000074  00000+0  45187-4 0  9990
2 22825  98.6881 227.5146 0009411 120.7072 239.5039 14.30940069705843
ITAMSAT (IO-26)         
1 22826U 93061D   26159.94049014  .00000092  00000+0  51394-4 0  9999
2 22826  98.6829 227.2733 0010048 106.4244 253.8044 14.31366725706135
RADIO ROSTO (RS15)      
1 23439U 94085A   26160.13396353 -.00000035  00000+0  20284-3 0  9992
2 23439  64.8186 316.2407 0155702   5.3648 354.8901 11.27583633294997
JAS-2 (FO-29)           
1 24278U 96046B   26160.10433694 -.00000009  00000+0  23943-4 0  9997
2 24278  98.5248  10.0837 0350777 117.3510 246.3789 13.53273744472075
TECHSAT 1B (GO-32)      
1 25397U 98043D   26160.26741352  .00000059  00000+0  45500-4 0  9996
2 25397  99.0065 152.8264 0000598 183.8868 176.2306 14.24426844450204
ISS (ZARYA)             
1 25544U 98067A   26160.19103139  .00006847  00000+0  12924-3 0  9997
2 25544  51.6332 339.6717 0006890 149.5560 210.5830 15.49678250570515
PCSAT (NO-44)           
1 26931U 01043C   26160.26677914  .00000089  00000+0  64108-4 0  9995
2 26931  67.0511 264.7572 0006107 264.2587  95.7818 14.31953293289315
SAUDISAT 1C (SO-50)     
1 27607U 02058C   26160.26567254  .00000928  00000+0  12671-3 0  9997
2 27607  64.5504 153.4942 0075435 263.9417  95.3090 14.83029337263289
CUTE-1 (CO-55)          
1 27844U 03031E   26160.23963294  .00000266  00000+0  13415-3 0  9995
2 27844  98.6735 168.8984 0009003 201.6668 158.4131 14.24330800190547
CUBESAT XI-IV (CO-57)   
1 27848U 03031J   26160.01325554  .00000222  00000+0  11652-3 0  9999
2 27848  98.6766 168.3941 0008561 222.5153 137.5363 14.23616414190218
MOZHAETS 4 (RS22)       
1 27939U 03042A   26160.28866682  .00000444  00000+0  76781-4 0  9994
2 27939  98.3475 344.4245 0010175 298.1896 238.5217 14.73452061214380
CUBESAT XI-V            
1 28895U 05043F   26158.95798337  .00001615  00000+0  26180-3 0  9999
2 28895  98.2976 314.3867 0013088 231.5140 128.4894 14.72607812100390
CUTE-1.7+APD II (CO-65) 
1 32785U 08021C   26160.22741874  .00005125  00000+0  32464-3 0  9990
2 32785  97.8272 141.4808 0010342  62.0877 298.1398 15.09376314983995
SEEDS II (CO-66)        
1 32791U 08021J   26160.23552938  .00016060  00000+0  51422-3 0  9994
2 32791  97.7519 157.7552 0002293  29.0945 331.0424 15.32477826986071
YUBILEINY (RS30)        
1 32953U 08025A   26160.29209198  .00000015  00000+0  38929-4 0  9992
2 32953  82.5048   0.3522 0019191 331.7140  28.2896 12.43178880818715
KKS-1 (KISEKI)          
1 33499U 09002H   26160.29554102  .00001247  00000+0  15994-3 0  9996
2 33499  98.1193  82.6129 0007003 325.5700  34.5058 14.83103543935027
SWISSCUBE               
1 35932U 09051B   26160.23220342  .00000884  00000+0  18430-3 0  9998
2 35932  98.4042  67.9819 0005536 231.7827 128.2876 14.62466323887992
BEESAT-1                
1 35933U 09051C   26160.30595957  .00000735  00000+0  15741-3 0  9991
2 35933  98.3972  67.7088 0003910 248.2700 111.8085 14.61707654888037
ITUPSAT1                
1 35935U 09051E   26160.28995216  .00000671  00000+0  14856-3 0  9997
2 35935  98.4055  66.8927 0006078 263.4866  96.5642 14.60428780887580
XIWANG-1 (HOPE-1)       
1 36122U 09072B   26160.26397421 -.00000243  00000+0 -52091-3 0  9991
2 36122 100.4025 114.2227 0006801 251.7914 108.2459 13.16438341791966
O/OREOS (USA 219)       
1 37224U 10062C   26160.22668023  .00002113  00000+0  20525-3 0  9994
2 37224  71.9704  98.3700 0012385  80.4823 279.7746 14.93710062115450
JUGNU                   
1 37839U 11058B   26160.26883713  .00000405  00000+0  72297-4 0  9997
2 37839  19.9621 356.5333 0018549 349.0526 166.6651 14.13774628757906
SRMSAT                  
1 37841U 11058D   26160.24317178  .00000362  00000+0  52709-4 0  9993
2 37841  19.9710 107.5505 0011939 116.6749 358.0957 14.11573893756694
STRAND-1                
1 39090U 13009E   26160.25835767  .00000258  00000+0  10123-3 0  9996
2 39090  98.3921 340.6880 0007439 252.3882 107.6492 14.37158500695921
ZACUBE-1 (TSHEPISOSAT)  
1 39417U 13066B   26160.14189495  .00002997  00000+0  23503-3 0  9998
2 39417  97.8092 122.4351 0040054 275.9917  83.6743 15.01137906679525
GOMX-1                  
1 39430U 13066Q   26160.28704166  .00001600  00000+0  24472-3 0  9992
2 39430  97.6494   1.2481 0130138 102.6304 258.9490 14.69429819668750
